[{"OBJECT_NAME":"STARLINK-34399","OBJECT_ID":"2025-130G","EPOCH":"2026-03-09T10:43:33.155328","MEAN_MOTION":15.30199309,"ECCENTRICITY":0.00013012,"INCLINATION":53.16,"RA_OF_ASC_NODE":89.8237,"ARG_OF_PERICENTER":81.0592,"MEAN_ANOMALY":279.0556,"EPHEMERIS_TYPE":0,"CLASSIFICATION_TYPE":"U","NORAD_CAT_ID":64444,"ELEMENT_SET_NO":999,"REV_AT_EPOCH":4066,"BSTAR":0.0011067655,"MEAN_MOTION_DOT":0.00032563,"MEAN_MOTION_DDOT":0},{"OBJECT_NAME":"SPACEMOBILE-005 DEB","OBJECT_ID":"2024-163K","EPOCH":"2026-03-09T07:33:15.902496","MEAN_MOTION":15.31481997,"ECCENTRICITY":0.00072885,"INCLINATION":52.9762,"RA_OF_ASC_NODE":31.7924,"ARG_OF_PERICENTER":175.8731,"MEAN_ANOMALY":184.2329,"EPHEMERIS_TYPE":0,"CLASSIFICATION_TYPE":"U","NORAD_CAT_ID":62373,"ELEMENT_SET_NO":999,"REV_AT_EPOCH":8280,"BSTAR":0.00063853778,"MEAN_MOTION_DOT":0.00019381,"MEAN_MOTION_DDOT":0}]
